{
  "type": "FeatureCollection",
  "features": [
    {
      "type": "Feature",
      "properties": {
        "norad_id": 33860,
        "name": "IRIDIUM 33 DEB",
        "group": "iridium-33-debris",
        "lat": 62.869705299424986,
        "lon": -159.2476683244579,
        "alt_km": 665.7711895210541,
        "timestamp": "2025-12-11T08:58:27.509940+00:00",
        "meta_object_name": "IRIDIUM 33 DEB",
        "meta_object_id": "1997-051AD",
        "meta_epoch": "2025-12-11T03:48:48.164256",
        "meta_mean_motion": 14.67334001,
        "meta_eccentricity": 0.0007679,
        "meta_inclination": 86.3835,
        "meta_ra_of_asc_node": 27.9377,
        "meta_arg_of_pericenter": 3.2947,
        "meta_mean_anomaly": 58.2985,
        "meta_ephemeris_type": 0,
        "meta_classification_type": "U",
        "meta_norad_cat_id": 33860,
        "meta_element_set_no": 999,
        "meta_rev_at_epoch": 88699,
        "meta_bstar": 0.0018344,
        "meta_mean_motion_dot": 0.00010386,
        "meta_mean_motion_ddot": 0,
        "tle_line1": "1 33860U 97051AD  25345.15889079  .00010386  00000+0  18344-2 0  9997",
        "tle_line2": "2 33860  86.3835  27.9377 0007679   3.2947  58.2985 14.67334001886990"
      },
      "geometry": {
        "type": "Point",
        "coordinates": [
          -159.2476683244579,
          62.869705299424986
        ]
      }
    },
    {
      "type": "Feature",
      "properties": {
        "norad_id": 33862,
        "name": "IRIDIUM 33 DEB",
        "group": "iridium-33-debris",
        "lat": 37.53422594679155,
        "lon": -144.63309550902744,
        "alt_km": 646.3091248335586,
        "timestamp": "2025-12-11T08:58:27.509951+00:00",
        "meta_object_name": "IRIDIUM 33 DEB",
        "meta_object_id": "1997-051AF",
        "meta_epoch": "2025-12-11T03:41:34.520064",
        "meta_mean_motion": 14.69430162,
        "meta_eccentricity": 0.0053523,
        "meta_inclination": 86.4089,
        "meta_ra_of_asc_node": 38.2294,
        "meta_arg_of_pericenter": 74.4791,
        "meta_mean_anomaly": 343.9033,
        "meta_ephemeris_type": 0,
        "meta_classification_type": "U",
        "meta_norad_cat_id": 33862,
        "meta_element_set_no": 999,
        "meta_rev_at_epoch": 88800,
        "meta_bstar": 0.0020933,
        "meta_mean_motion_dot": 0.00012698,
        "meta_mean_motion_ddot": 0,
        "tle_line1": "1 33862U 97051AF  25345.15387176  .00012698  00000+0  20933-2 0  9995",
        "tle_line2": "2 33862  86.4089  38.2294 0053523  74.4791 343.9033 14.69430162888002"
      },
      "geometry": {
        "type": "Point",
        "coordinates": [
          -144.63309550902744,
          37.53422594679155
        ]
      }
    },
    {
      "type": "Feature",
      "properties": {
        "norad_id": 33866,
        "name": "IRIDIUM 33 DEB",
        "group": "iridium-33-debris",
        "lat": 62.38385349331765,
        "lon": 100.71887571943155,
        "alt_km": 819.2654371213139,
        "timestamp": "2025-12-11T08:58:27.509963+00:00",
        "meta_object_name": "IRIDIUM 33 DEB",
        "meta_object_id": "1997-051AK",
        "meta_epoch": "2025-12-10T18:13:34.881600",
        "meta_mean_motion": 14.25264618,
        "meta_eccentricity": 0.01143267,
        "meta_inclination": 86.2998,
        "meta_ra_of_asc_node": 93.8733,
        "meta_arg_of_pericenter": 167.693,
        "meta_mean_anomaly": 345.2596,
        "meta_ephemeris_type": 0,
        "meta_classification_type": "U",
        "meta_norad_cat_id": 33866,
        "meta_element_set_no": 999,
        "meta_rev_at_epoch": 86782,
        "meta_bstar": 0.0011367253,
        "meta_mean_motion_dot": 2.881e-05,
        "meta_mean_motion_ddot": 0,
        "tle_line1": "1 33866U 97051AK  25344.75943150  .00002881  00000+0  11367-2 0  9998",
        "tle_line2": "2 33866  86.2998  93.8733 0114326 167.6930 345.2596 14.25264618867826"
      },
      "geometry": {
        "type": "Point",
        "coordinates": [
          100.71887571943155,
          62.38385349331765
        ]
      }
    },
    {
      "type": "Feature",
      "properties": {
        "norad_id": 33867,
        "name": "IRIDIUM 33 DEB",
        "group": "iridium-33-debris",
        "lat": 55.05986903897203,
        "lon": 165.5921579186868,
        "alt_km": 361.00877000064247,
        "timestamp": "2025-12-11T08:58:27.509974+00:00",
        "meta_object_name": "IRIDIUM 33 DEB",
        "meta_object_id": "1997-051AL",
        "meta_epoch": "2025-12-11T00:46:09.488064",
        "meta_mean_motion": 15.6435787,
        "meta_eccentricity": 0.0013206,
        "meta_inclination": 86.364,
        "meta_ra_of_asc_node": 350.9911,
        "meta_arg_of_pericenter": 90.6503,
        "meta_mean_anomaly": 269.6278,
        "meta_ephemeris_type": 0,
        "meta_classification_type": "U",
        "meta_norad_cat_id": 33867,
        "meta_element_set_no": 999,
        "meta_rev_at_epoch": 89484,
        "meta_bstar": 0.0092293,
        "meta_mean_motion_dot": 0.00975243,
        "meta_mean_motion_ddot": 0,
        "tle_line1": "1 33867U 97051AL  25345.03205426  .00975243  00000+0  92293-2 0  9996",
        "tle_line2": "2 33867  86.3640 350.9911 0013206  90.6503 269.6278 15.64357870894848"
      },
      "geometry": {
        "type": "Point",
        "coordinates": [
          165.5921579186868,
          55.05986903897203
        ]
      }
    },
    {
      "type": "Feature",
      "properties": {
        "norad_id": 33870,
        "name": "IRIDIUM 33 DEB",
        "group": "iridium-33-debris",
        "lat": 61.20638349116751,
        "lon": 65.4705213811854,
        "alt_km": 741.1883233855651,
        "timestamp": "2025-12-11T08:58:27.509985+00:00",
        "meta_object_name": "IRIDIUM 33 DEB",
        "meta_object_id": "1997-051AP",
        "meta_epoch": "2025-12-11T05:37:02.619840",
        "meta_mean_motion": 14.45838487,
        "meta_eccentricity": 0.0021324,
        "meta_inclination": 86.3744,
        "meta_ra_of_asc_node": 58.9059,
        "meta_arg_of_pericenter": 182.8727,
        "meta_mean_anomaly": 231.2371,
        "meta_ephemeris_type": 0,
        "meta_classification_type": "U",
        "meta_norad_cat_id": 33870,
        "meta_element_set_no": 999,
        "meta_rev_at_epoch": 88115,
        "meta_bstar": 0.0012319,
        "meta_mean_motion_dot": 4.403e-05,
        "meta_mean_motion_ddot": 0,
        "tle_line1": "1 33870U 97051AP  25345.23405810  .00004403  00000+0  12319-2 0  9993",
        "tle_line2": "2 33870  86.3744  58.9059 0021324 182.8727 231.2371 14.45838487881152"
      },
      "geometry": {
        "type": "Point",
        "coordinates": [
          65.4705213811854,
          61.20638349116751
        ]
      }
    },
    {
      "type": "Feature",
      "properties": {
        "norad_id": 33881,
        "name": "IRIDIUM 33 DEB",
        "group": "iridium-33-debris",
        "lat": -57.824689851939084,
        "lon": -66.89919707270877,
        "alt_km": 688.9674255695309,
        "timestamp": "2025-12-11T08:58:27.509996+00:00",
        "meta_object_name": "IRIDIUM 33 DEB",
        "meta_object_id": "1997-051BA",
        "meta_epoch": "2025-12-10T19:23:39.783840",
        "meta_mean_motion": 14.56512734,
        "meta_eccentricity": 0.00614461,
        "meta_inclination": 86.3863,
        "meta_ra_of_asc_node": 107.5816,
        "meta_arg_of_pericenter": 180.8783,
        "meta_mean_anomaly": 331.4545,
        "meta_ephemeris_type": 0,
        "meta_classification_type": "U",
        "meta_norad_cat_id": 33881,
        "meta_element_set_no": 999,
        "meta_rev_at_epoch": 87472,
        "meta_bstar": 0.0031554403,
        "meta_mean_motion_dot": 0.00014437,
        "meta_mean_motion_ddot": 0,
        "tle_line1": "1 33881U 97051BA  25344.80809935  .00014437  00000+0  31554-2 0  9993",
        "tle_line2": "2 33881  86.3863 107.5816 0061446 180.8783 331.4545 14.56512734874724"
      },
      "geometry": {
        "type": "Point",
        "coordinates": [
          -66.89919707270877,
          -57.824689851939084
        ]
      }
    },
    {
      "type": "Feature",
      "properties": {
        "norad_id": 33884,
        "name": "IRIDIUM 33 DEB",
        "group": "iridium-33-debris",
        "lat": 80.96115263966652,
        "lon": 33.95634298778895,
        "alt_km": 632.9163482732811,
        "timestamp": "2025-12-11T08:58:27.510007+00:00",
        "meta_object_name": "IRIDIUM 33 DEB",
        "meta_object_id": "1997-051BD",
        "meta_epoch": "2025-12-11T02:20:45.458304",
        "meta_mean_motion": 14.77374532,
        "meta_eccentricity": 0.000987,
        "meta_inclination": 86.3697,
        "meta_ra_of_asc_node": 10.5592,
        "meta_arg_of_pericenter": 330.1286,
        "meta_mean_anomaly": 83.5788,
        "meta_ephemeris_type": 0,
        "meta_classification_type": "U",
        "meta_norad_cat_id": 33884,
        "meta_element_set_no": 999,
        "meta_rev_at_epoch": 88823,
        "meta_bstar": 0.0021764,
        "meta_mean_motion_dot": 0.00015524,
        "meta_mean_motion_ddot": 0,
        "tle_line1": "1 33884U 97051BD  25345.09774836  .00015524  00000+0  21764-2 0  9999",
        "tle_line2": "2 33884  86.3697  10.5592 0009870 330.1286  83.5788 14.77374532888237"
      },
      "geometry": {
        "type": "Point",
        "coordinates": [
          33.95634298778895,
          80.96115263966652
        ]
      }
    }
  ]
}